LEMUR-2-MARAPAMASM
1 58332U 23174CE  24002.90425446  .00017838  00000-0  90111-3 0  9992
2 58332  97.4712  80.0430 0011120  69.7776 290.4652 15.17084141  8508
